{
  "type": "FeatureCollection",
  "features": [
    {
      "type": "Feature",
      "properties": {
        "norad_id": 28890,
        "name": "BEIJING 1",
        "group": "dmc",
        "lat": -69.75315250730935,
        "lon": 139.66235410586216,
        "alt_km": 699.373287758558,
        "timestamp": "2025-12-14T22:38:40.425928+00:00",
        "meta_object_name": "BEIJING 1",
        "meta_object_id": "2005-043A",
        "meta_epoch": "2025-12-14T08:12:08.357760",
        "meta_mean_motion": 14.63369357,
        "meta_eccentricity": 0.00154356,
        "meta_inclination": 98.2648,
        "meta_ra_of_asc_node": 115.8518,
        "meta_arg_of_pericenter": 136.4912,
        "meta_mean_anomaly": 223.751,
        "meta_ephemeris_type": 0,
        "meta_classification_type": "U",
        "meta_norad_cat_id": 28890,
        "meta_element_set_no": 999,
        "meta_rev_at_epoch": 7361,
        "meta_bstar": 0.00015353052,
        "meta_mean_motion_dot": 7.46e-06,
        "meta_mean_motion_ddot": 0,
        "tle_line1": "1 28890U 05043A   25348.34176340  .00000746  00000+0  15353-3 0  9995",
        "tle_line2": "2 28890  98.2648 115.8518 0015435 136.4912 223.7510 14.63369357 73613"
      },
      "geometry": {
        "type": "Point",
        "coordinates": [
          139.66235410586216,
          -69.75315250730935
        ]
      }
    },
    {
      "type": "Feature",
      "properties": {
        "norad_id": 33320,
        "name": "HUANJING 1A (HJ-1A)",
        "group": "dmc",
        "lat": 64.16344055536764,
        "lon": 173.2754972929409,
        "alt_km": 611.6722388735725,
        "timestamp": "2025-12-14T22:38:40.425953+00:00",
        "meta_object_name": "HUANJING 1A (HJ-1A)",
        "meta_object_id": "2008-041A",
        "meta_epoch": "2025-12-14T07:33:38.803680",
        "meta_mean_motion": 14.83403164,
        "meta_eccentricity": 0.00200469,
        "meta_inclination": 97.6542,
        "meta_ra_of_asc_node": 336.548,
        "meta_arg_of_pericenter": 29.4047,
        "meta_mean_anomaly": 330.8291,
        "meta_ephemeris_type": 0,
        "meta_classification_type": "U",
        "meta_norad_cat_id": 33320,
        "meta_element_set_no": 999,
        "meta_rev_at_epoch": 93099,
        "meta_bstar": 0.00033944878,
        "meta_mean_motion_dot": 2.744e-05,
        "meta_mean_motion_ddot": 0,
        "tle_line1": "1 33320U 08041A   25348.31503245  .00002744  00000+0  33945-3 0  9992",
        "tle_line2": "2 33320  97.6542 336.5480 0020046  29.4047 330.8291 14.83403164930993"
      },
      "geometry": {
        "type": "Point",
        "coordinates": [
          173.2754972929409,
          64.16344055536764
        ]
      }
    },
    {
      "type": "Feature",
      "properties": {
        "norad_id": 33321,
        "name": "HUANJING 1B (HJ-1B)",
        "group": "dmc",
        "lat": -29.228827748391133,
        "lon": -14.85080107752272,
        "alt_km": 629.9771718335351,
        "timestamp": "2025-12-14T22:38:40.425967+00:00",
        "meta_object_name": "HUANJING 1B (HJ-1B)",
        "meta_object_id": "2008-041B",
        "meta_epoch": "2025-12-14T08:12:05.808960",
        "meta_mean_motion": 14.82829786,
        "meta_eccentricity": 0.00381906,
        "meta_inclination": 97.6403,
        "meta_ra_of_asc_node": 340.2665,
        "meta_arg_of_pericenter": 70.6162,
        "meta_mean_anomaly": 289.9174,
        "meta_ephemeris_type": 0,
        "meta_classification_type": "U",
        "meta_norad_cat_id": 33321,
        "meta_element_set_no": 999,
        "meta_rev_at_epoch": 93101,
        "meta_bstar": 0.00031514864,
        "meta_mean_motion_dot": 2.532e-05,
        "meta_mean_motion_ddot": 0,
        "tle_line1": "1 33321U 08041B   25348.34173390  .00002532  00000+0  31515-3 0  9996",
        "tle_line2": "2 33321  97.6403 340.2665 0038190  70.6162 289.9174 14.82829786931011"
      },
      "geometry": {
        "type": "Point",
        "coordinates": [
          -14.85080107752272,
          -29.228827748391133
        ]
      }
    },
    {
      "type": "Feature",
      "properties": {
        "norad_id": 33446,
        "name": "YAOGAN-4",
        "group": "dmc",
        "lat": -60.52662713377055,
        "lon": 84.76508625589113,
        "alt_km": 625.4351469670155,
        "timestamp": "2025-12-14T22:38:40.425979+00:00",
        "meta_object_name": "YAOGAN-4",
        "meta_object_id": "2008-061A",
        "meta_epoch": "2025-12-14T06:58:50.323872",
        "meta_mean_motion": 14.82689567,
        "meta_eccentricity": 0.00134687,
        "meta_inclination": 97.9179,
        "meta_ra_of_asc_node": 278.375,
        "meta_arg_of_pericenter": 317.8799,
        "meta_mean_anomaly": 42.1378,
        "meta_ephemeris_type": 0,
        "meta_classification_type": "U",
        "meta_norad_cat_id": 33446,
        "meta_element_set_no": 999,
        "meta_rev_at_epoch": 91826,
        "meta_bstar": 0.0002615583,
        "meta_mean_motion_dot": 2.059e-05,
        "meta_mean_motion_ddot": 0,
        "tle_line1": "1 33446U 08061A   25348.29086023  .00002059  00000+0  26156-3 0  9995",
        "tle_line2": "2 33446  97.9179 278.3750 0013468 317.8799  42.1378 14.82689567918269"
      },
      "geometry": {
        "type": "Point",
        "coordinates": [
          84.76508625589113,
          -60.52662713377055
        ]
      }
    },
    {
      "type": "Feature",
      "properties": {
        "norad_id": 35681,
        "name": "DEIMOS-1",
        "group": "dmc",
        "lat": -49.36504143465515,
        "lon": 158.53261178572325,
        "alt_km": 653.3036708670306,
        "timestamp": "2025-12-14T22:38:40.425991+00:00",
        "meta_object_name": "DEIMOS-1",
        "meta_object_id": "2009-041A",
        "meta_epoch": "2025-12-14T08:13:02.540928",
        "meta_mean_motion": 14.74956194,
        "meta_eccentricity": 0.00027288,
        "meta_inclination": 97.7149,
        "meta_ra_of_asc_node": 148.8708,
        "meta_arg_of_pericenter": 77.8357,
        "meta_mean_anomaly": 282.3159,
        "meta_ephemeris_type": 0,
        "meta_classification_type": "U",
        "meta_norad_cat_id": 35681,
        "meta_element_set_no": 999,
        "meta_rev_at_epoch": 87963,
        "meta_bstar": 0.00015765579,
        "meta_mean_motion_dot": 1.012e-05,
        "meta_mean_motion_ddot": 0,
        "tle_line1": "1 35681U 09041A   25348.34239052  .00001012  00000+0  15766-3 0  9998",
        "tle_line2": "2 35681  97.7149 148.8708 0002728  77.8357 282.3159 14.74956194879637"
      },
      "geometry": {
        "type": "Point",
        "coordinates": [
          158.53261178572325,
          -49.36504143465515
        ]
      }
    },
    {
      "type": "Feature",
      "properties": {
        "norad_id": 35683,
        "name": "UK-DMC 2",
        "group": "dmc",
        "lat": -29.28184907579064,
        "lon": 128.22358203185698,
        "alt_km": 649.6904487772172,
        "timestamp": "2025-12-14T22:38:40.426001+00:00",
        "meta_object_name": "UK-DMC 2",
        "meta_object_id": "2009-041C",
        "meta_epoch": "2025-12-14T08:07:53.937408",
        "meta_mean_motion": 14.75627536,
        "meta_eccentricity": 0.00014718,
        "meta_inclination": 97.8557,
        "meta_ra_of_asc_node": 123.1958,
        "meta_arg_of_pericenter": 98.5747,
        "meta_mean_anomaly": 261.5629,
        "meta_ephemeris_type": 0,
        "meta_classification_type": "U",
        "meta_norad_cat_id": 35683,
        "meta_element_set_no": 999,
        "meta_rev_at_epoch": 87930,
        "meta_bstar": 0.00023462418,
        "meta_mean_motion_dot": 1.552e-05,
        "meta_mean_motion_ddot": 0,
        "tle_line1": "1 35683U 09041C   25348.33881872  .00001552  00000+0  23462-3 0  9993",
        "tle_line2": "2 35683  97.8557 123.1958 0001471  98.5747 261.5629 14.75627536879304"
      },
      "geometry": {
        "type": "Point",
        "coordinates": [
          128.22358203185698,
          -29.28184907579064
        ]
      }
    },
    {
      "type": "Feature",
      "properties": {
        "norad_id": 40715,
        "name": "DMC3-FM1",
        "group": "dmc",
        "lat": 79.43047620795565,
        "lon": 82.28681570583007,
        "alt_km": 607.416750517551,
        "timestamp": "2025-12-14T22:38:40.426012+00:00",
        "meta_object_name": "DMC3-FM1",
        "meta_object_id": "2015-032A",
        "meta_epoch": "2025-12-14T07:39:29.447712",
        "meta_mean_motion": 14.85443852,
        "meta_eccentricity": 0.00045636,
        "meta_inclination": 97.6691,
        "meta_ra_of_asc_node": 215.4539,
        "meta_arg_of_pericenter": 315.136,
        "meta_mean_anomaly": 44.9486,
        "meta_ephemeris_type": 0,
        "meta_classification_type": "U",
        "meta_norad_cat_id": 40715,
        "meta_element_set_no": 999,
        "meta_rev_at_epoch": 56246,
        "meta_bstar": 0.00014452494,
        "meta_mean_motion_dot": 1.194e-05,
        "meta_mean_motion_ddot": 0,
        "tle_line1": "1 40715U 15032A   25348.31909083  .00001194  00000+0  14452-3 0  9996",
        "tle_line2": "2 40715  97.6691 215.4539 0004563 315.1360  44.9486 14.85443852562465"
      },
      "geometry": {
        "type": "Point",
        "coordinates": [
          82.28681570583007,
          79.43047620795565
        ]
      }
    },
    {
      "type": "Feature",
      "properties": {
        "norad_id": 40716,
        "name": "DMC3-FM2",
        "group": "dmc",
        "lat": -22.833099861049888,
        "lon": -139.24408136901602,
        "alt_km": 614.2187816234527,
        "timestamp": "2025-12-14T22:38:40.426022+00:00",
        "meta_object_name": "DMC3-FM2",
        "meta_object_id": "2015-032B",
        "meta_epoch": "2025-12-14T08:11:52.823904",
        "meta_mean_motion": 14.85448042,
        "meta_eccentricity": 0.00051447,
        "meta_inclination": 97.6751,
        "meta_ra_of_asc_node": 216.9207,
        "meta_arg_of_pericenter": 321.0254,
        "meta_mean_anomaly": 39.059,
        "meta_ephemeris_type": 0,
        "meta_classification_type": "U",
        "meta_norad_cat_id": 40716,
        "meta_element_set_no": 999,
        "meta_rev_at_epoch": 56246,
        "meta_bstar": 0.0001966034,
        "meta_mean_motion_dot": 1.644e-05,
        "meta_mean_motion_ddot": 0,
        "tle_line1": "1 40716U 15032B   25348.34158361  .00001644  00000+0  19660-3 0  9991",
        "tle_line2": "2 40716  97.6751 216.9207 0005144 321.0254  39.0590 14.85448042562462"
      },
      "geometry": {
        "type": "Point",
        "coordinates": [
          -139.24408136901602,
          -22.833099861049888
        ]
      }
    },
    {
      "type": "Feature",
      "properties": {
        "norad_id": 40717,
        "name": "DMC3-FM3",
        "group": "dmc",
        "lat": -40.98741613088258,
        "lon": 32.401697347260196,
        "alt_km": 619.3517758273892,
        "timestamp": "2025-12-14T22:38:40.426033+00:00",
        "meta_object_name": "DMC3-FM3",
        "meta_object_id": "2015-032C",
        "meta_epoch": "2025-12-14T08:43:02.169984",
        "meta_mean_motion": 14.85434603,
        "meta_eccentricity": 0.00045473,
        "meta_inclination": 97.6805,
        "meta_ra_of_asc_node": 218.5758,
        "meta_arg_of_pericenter": 323.0975,
        "meta_mean_anomaly": 36.9927,
        "meta_ephemeris_type": 0,
        "meta_classification_type": "U",
        "meta_norad_cat_id": 40717,
        "meta_element_set_no": 999,
        "meta_rev_at_epoch": 56247,
        "meta_bstar": 0.00011259389,
        "meta_mean_motion_dot": 9.19e-06,
        "meta_mean_motion_ddot": 0,
        "tle_line1": "1 40717U 15032C   25348.36321956  .00000919  00000+0  11259-3 0  9996",
        "tle_line2": "2 40717  97.6805 218.5758 0004547 323.0975  36.9927 14.85434603562479"
      },
      "geometry": {
        "type": "Point",
        "coordinates": [
          32.401697347260196,
          -40.98741613088258
        ]
      }
    }
  ]
}